[{"OBJECT_NAME":"INTELSAT 25 (IS-25)","OBJECT_ID":"2008-034A","EPOCH":"2026-04-23T01:58:38.717184","MEAN_MOTION":0.99965107,"ECCENTRICITY":0.00021655,"INCLINATION":2.567,"RA_OF_ASC_NODE":80.9425,"ARG_OF_PERICENTER":274.6153,"MEAN_ANOMALY":207.906,"EPHEMERIS_TYPE":0,"CLASSIFICATION_TYPE":"U","NORAD_CAT_ID":33153,"ELEMENT_SET_NO":999,"REV_AT_EPOCH":6514,"BSTAR":0,"MEAN_MOTION_DOT":-2.78e-6,"MEAN_MOTION_DDOT":0},{"OBJECT_NAME":"GALAXY 19 (G-19)","OBJECT_ID":"2008-045A","EPOCH":"2026-04-25T19:59:34.585152","MEAN_MOTION":1.00271954,"ECCENTRICITY":0.0003257,"INCLINATION":0.0157,"RA_OF_ASC_NODE":249.3206,"ARG_OF_PERICENTER":160.4396,"MEAN_ANOMALY":6.9681,"EPHEMERIS_TYPE":0,"CLASSIFICATION_TYPE":"U","NORAD_CAT_ID":33376,"ELEMENT_SET_NO":999,"REV_AT_EPOCH":6437,"BSTAR":0,"MEAN_MOTION_DOT":-1.53e-6,"MEAN_MOTION_DDOT":0},{"OBJECT_NAME":"FM-5","OBJECT_ID":"2009-034A","EPOCH":"2026-04-25T20:49:38.771040","MEAN_MOTION":1.00270622,"ECCENTRICITY":6.71e-5,"INCLINATION":0.0135,"RA_OF_ASC_NODE":264.8841,"ARG_OF_PERICENTER":28.0187,"MEAN_ANOMALY":147.235,"EPHEMERIS_TYPE":0,"CLASSIFICATION_TYPE":"U","NORAD_CAT_ID":35493,"ELEMENT_SET_NO":999,"REV_AT_EPOCH":4611,"BSTAR":0,"MEAN_MOTION_DOT":-2.14e-6,"MEAN_MOTION_DDOT":0},{"OBJECT_NAME":"INTELSAT 14 (IS-14)","OBJECT_ID":"2009-064A","EPOCH":"2026-04-25T20:14:25.660320","MEAN_MOTION":1.00272374,"ECCENTRICITY":0.0002457,"INCLINATION":0.0005,"RA_OF_ASC_NODE":312.7833,"ARG_OF_PERICENTER":80.3792,"MEAN_ANOMALY":79.2965,"EPHEMERIS_TYPE":0,"CLASSIFICATION_TYPE":"U","NORAD_CAT_ID":36097,"ELEMENT_SET_NO":999,"REV_AT_EPOCH":6008,"BSTAR":0,"MEAN_MOTION_DOT":-2.87e-6,"MEAN_MOTION_DDOT":0},{"OBJECT_NAME":"INTELSAT 15 (IS-15)","OBJECT_ID":"2009-067A","EPOCH":"2026-04-25T21:02:21.931008","MEAN_MOTION":1.00271876,"ECCENTRICITY":0.0002233,"INCLINATION":0.029,"RA_OF_ASC_NODE":92.7672,"ARG_OF_PERICENTER":301.0145,"MEAN_ANOMALY":220.8502,"EPHEMERIS_TYPE":0,"CLASSIFICATION_TYPE":"U","NORAD_CAT_ID":36106,"ELEMENT_SET_NO":999,"REV_AT_EPOCH":4070,"BSTAR":0,"MEAN_MOTION_DOT":-1.99e-6,"MEAN_MOTION_DDOT":0},{"OBJECT_NAME":"DIRECTV 12","OBJECT_ID":"2009-075A","EPOCH":"2026-04-25T14:24:04.078080","MEAN_MOTION":1.00271849,"ECCENTRICITY":1.8e-5,"INCLINATION":0.0284,"RA_OF_ASC_NODE":90.2119,"ARG_OF_PERICENTER":294.2966,"MEAN_ANOMALY":302.3934,"EPHEMERIS_TYPE":0,"CLASSIFICATION_TYPE":"U","NORAD_CAT_ID":36131,"ELEMENT_SET_NO":999,"REV_AT_EPOCH":4602,"BSTAR":0,"MEAN_MOTION_DOT":-1.17e-6,"MEAN_MOTION_DDOT":0},{"OBJECT_NAME":"INTELSAT 16 (IS-16)","OBJECT_ID":"2010-006A","EPOCH":"2026-04-25T20:49:38.771040","MEAN_MOTION":1.0027165,"ECCENTRICITY":0.0002054,"INCLINATION":0.0073,"RA_OF_ASC_NODE":128.9114,"ARG_OF_PERICENTER":289.366,"MEAN_ANOMALY":31.8187,"EPHEMERIS_TYPE":0,"CLASSIFICATION_TYPE":"U","NORAD_CAT_ID":36397,"ELEMENT_SET_NO":999,"REV_AT_EPOCH":5912,"BSTAR":0,"MEAN_MOTION_DOT":-2.58e-6,"MEAN_MOTION_DDOT":0},{"OBJECT_NAME":"XM-5","OBJECT_ID":"2010-053A","EPOCH":"2026-04-25T03:58:38.722944","MEAN_MOTION":1.0027189,"ECCENTRICITY":0.00035559,"INCLINATION":0.0622,"RA_OF_ASC_NODE":271.1719,"ARG_OF_PERICENTER":277.0771,"MEAN_ANOMALY":329.4028,"EPHEMERIS_TYPE":0,"CLASSIFICATION_TYPE":"U","NORAD_CAT_ID":37185,"ELEMENT_SET_NO":999,"REV_AT_EPOCH":5695,"BSTAR":0,"MEAN_MOTION_DOT":-3.8e-7,"MEAN_MOTION_DDOT":0},{"OBJECT_NAME":"INTELSAT 17 (IS-17)","OBJECT_ID":"2010-065B","EPOCH":"2026-04-25T19:03:24.967872","MEAN_MOTION":1.00271326,"ECCENTRICITY":0.0002788,"INCLINATION":0.0135,"RA_OF_ASC_NODE":188.2946,"ARG_OF_PERICENTER":222.7949,"MEAN_ANOMALY":154.5713,"EPHEMERIS_TYPE":0,"CLASSIFICATION_TYPE":"U","NORAD_CAT_ID":37238,"ELEMENT_SET_NO":999,"REV_AT_EPOCH":5272,"BSTAR":0,"MEAN_MOTION_DOT":-1.5e-7,"MEAN_MOTION_DDOT":0},{"OBJECT_NAME":"INTELSAT 28 (IS-28)","OBJECT_ID":"2011-016A","EPOCH":"2026-04-25T20:32:38.801760","MEAN_MOTION":1.00270964,"ECCENTRICITY":0.0004136,"INCLINATION":1.6727,"RA_OF_ASC_NODE":83.2219,"ARG_OF_PERICENTER":315.414,"MEAN_ANOMALY":91.6831,"EPHEMERIS_TYPE":0,"CLASSIFICATION_TYPE":"U","NORAD_CAT_ID":37392,"ELEMENT_SET_NO":999,"REV_AT_EPOCH":5276,"BSTAR":0,"MEAN_MOTION_DOT":-2.37e-6,"MEAN_MOTION_DDOT":0},{"OBJECT_NAME":"INTELSAT 18 (IS-18)","OBJECT_ID":"2011-056A","EPOCH":"2026-04-25T19:10:38.556768","MEAN_MOTION":1.00271707,"ECCENTRICITY":0.0001913,"INCLINATION":0.0186,"RA_OF_ASC_NODE":241.5106,"ARG_OF_PERICENTER":150.6451,"MEAN_ANOMALY":289.3189,"EPHEMERIS_TYPE":0,"CLASSIFICATION_TYPE":"U","NORAD_CAT_ID":37834,"ELEMENT_SET_NO":999,"REV_AT_EPOCH":5328,"BSTAR":0,"MEAN_MOTION_DOT":0,"MEAN_MOTION_DDOT":0},{"OBJECT_NAME":"INTELSAT 22 (IS-22)","OBJECT_ID":"2012-011A","EPOCH":"2026-04-25T19:05:09.802176","MEAN_MOTION":1.00270622,"ECCENTRICITY":0.0001768,"INCLINATION":0.0195,"RA_OF_ASC_NODE":113.8551,"ARG_OF_PERICENTER":285.0185,"MEAN_ANOMALY":173.3255,"EPHEMERIS_TYPE":0,"CLASSIFICATION_TYPE":"U","NORAD_CAT_ID":38098,"ELEMENT_SET_NO":999,"REV_AT_EPOCH":666,"BSTAR":0,"MEAN_MOTION_DOT":-7.2e-7,"MEAN_MOTION_DDOT":0},{"OBJECT_NAME":"INTELSAT 19 (IS-19)","OBJECT_ID":"2012-030A","EPOCH":"2026-04-25T21:02:38.626944","MEAN_MOTION":1.00272058,"ECCENTRICITY":0.0002897,"INCLINATION":0.037,"RA_OF_ASC_NODE":80.7389,"ARG_OF_PERICENTER":313.7431,"MEAN_ANOMALY":301.0709,"EPHEMERIS_TYPE":0,"CLASSIFICATION_TYPE":"U","NORAD_CAT_ID":38356,"ELEMENT_SET_NO":999,"REV_AT_EPOCH":4992,"BSTAR":0,"MEAN_MOTION_DOT":-7.0e-7,"MEAN_MOTION_DDOT":0},{"OBJECT_NAME":"INTELSAT 20 (IS-20)","OBJECT_ID":"2012-043A","EPOCH":"2026-04-25T08:48:05.027040","MEAN_MOTION":1.00271272,"ECCENTRICITY":0.0002135,"INCLINATION":0.011,"RA_OF_ASC_NODE":173.238,"ARG_OF_PERICENTER":3.139,"MEAN_ANOMALY":237.531,"EPHEMERIS_TYPE":0,"CLASSIFICATION_TYPE":"U","NORAD_CAT_ID":38740,"ELEMENT_SET_NO":999,"REV_AT_EPOCH":5021,"BSTAR":0,"MEAN_MOTION_DOT":-3.9e-7,"MEAN_MOTION_DDOT":0},{"OBJECT_NAME":"INTELSAT 21 (IS-21)","OBJECT_ID":"2012-045A","EPOCH":"2026-04-25T20:57:38.714400","MEAN_MOTION":1.00271236,"ECCENTRICITY":0.0002017,"INCLINATION":0.0563,"RA_OF_ASC_NODE":77.9509,"ARG_OF_PERICENTER":327.1216,"MEAN_ANOMALY":65.2188,"EPHEMERIS_TYPE":0,"CLASSIFICATION_TYPE":"U","NORAD_CAT_ID":38749,"ELEMENT_SET_NO":999,"REV_AT_EPOCH":5000,"BSTAR":0,"MEAN_MOTION_DOT":-2.98e-6,"MEAN_MOTION_DDOT":0},{"OBJECT_NAME":"INTELSAT 23 (IS-23)","OBJECT_ID":"2012-057A","EPOCH":"2026-04-25T20:12:10.876320","MEAN_MOTION":1.00267839,"ECCENTRICITY":9.7e-6,"INCLINATION":0.0165,"RA_OF_ASC_NODE":267.576,"ARG_OF_PERICENTER":177.4,"MEAN_ANOMALY":18.8883,"EPHEMERIS_TYPE":0,"CLASSIFICATION_TYPE":"U","NORAD_CAT_ID":38867,"ELEMENT_SET_NO":999,"REV_AT_EPOCH":4943,"BSTAR":0,"MEAN_MOTION_DOT":-2.98e-6,"MEAN_MOTION_DDOT":0},{"OBJECT_NAME":"FM-6","OBJECT_ID":"2013-058A","EPOCH":"2026-04-25T07:58:03.711360","MEAN_MOTION":1.00265196,"ECCENTRICITY":2.86e-5,"INCLINATION":0.0105,"RA_OF_ASC_NODE":250.7766,"ARG_OF_PERICENTER":259.1068,"MEAN_ANOMALY":66.6169,"EPHEMERIS_TYPE":0,"CLASSIFICATION_TYPE":"U","NORAD_CAT_ID":39360,"ELEMENT_SET_NO":999,"REV_AT_EPOCH":4554,"BSTAR":0,"MEAN_MOTION_DOT":-2.9e-7,"MEAN_MOTION_DDOT":0}]
