INTELSAT 25 (IS-25)     
1 33153U 08034A   26113.08239256 -.00000278  00000+0  00000+0 0  9994
2 33153   2.5670  80.9425 0002165 274.6153 207.9060  0.99965107 65143
GALAXY 19 (G-19)        
1 33376U 08045A   26115.83303918 -.00000153  00000+0  00000+0 0  9997
2 33376   0.0157 249.3206 0003257 160.4396   6.9681  1.00271954 64378
FM-5                    
1 35493U 09034A   26115.86780985 -.00000214  00000+0  00000+0 0  9992
2 35493   0.0135 264.8841 0000671  28.0187 147.2350  1.00270622 46112
INTELSAT 14 (IS-14)     
1 36097U 09064A   26115.84335255 -.00000287  00000+0  00000+0 0  9990
2 36097   0.0005 312.7833 0002457  80.3792  79.2965  1.00272374 60084
INTELSAT 15 (IS-15)     
1 36106U 09067A   26115.87664272 -.00000199  00000+0  00000+0 0  9993
2 36106   0.0290  92.7672 0002233 301.0145 220.8502  1.00271876 40708
DIRECTV 12              
1 36131U 09075A   26115.60004720 -.00000117  00000+0  00000+0 0  9997
2 36131   0.0284  90.2119 0000180 294.2966 302.3934  1.00271849 46027
INTELSAT 16 (IS-16)     
1 36397U 10006A   26115.86780985 -.00000258  00000+0  00000+0 0  9995
2 36397   0.0073 128.9114 0002054 289.3660  31.8187  1.00271650 59128
XM-5                    
1 37185U 10053A   26115.16572596 -.00000038  00000+0  00000+0 0  9999
2 37185   0.0622 271.1719 0003555 277.0771 329.4028  1.00271890 56954
INTELSAT 17 (IS-17)     
1 37238U 10065B   26115.79403898 -.00000015  00000+0  00000+0 0  9993
2 37238   0.0135 188.2946 0002788 222.7949 154.5713  1.00271326 52726
INTELSAT 28 (IS-28)     
1 37392U 11016A   26115.85600465 -.00000237  00000+0  00000+0 0  9993
2 37392   1.6727  83.2219 0004136 315.4140  91.6831  1.00270964 52763
INTELSAT 18 (IS-18)     
1 37834U 11056A   26115.79905737  .00000000  00000+0  00000+0 0  9998
2 37834   0.0186 241.5106 0001913 150.6451 289.3189  1.00271707 53280
INTELSAT 22 (IS-22)     
1 38098U 12011A   26115.79525234 -.00000072  00000+0  00000+0 0  9993
2 38098   0.0195 113.8551 0001768 285.0185 173.3255  1.00270622  6664
INTELSAT 19 (IS-19)     
1 38356U 12030A   26115.87683596 -.00000070  00000+0  00000+0 0  9994
2 38356   0.0370  80.7389 0002897 313.7431 301.0709  1.00272058 49929
INTELSAT 20 (IS-20)     
1 38740U 12043A   26115.36672485 -.00000039  00000+0  00000+0 0  9999
2 38740   0.0110 173.2380 0002135   3.1390 237.5310  1.00271272 50218
INTELSAT 21 (IS-21)     
1 38749U 12045A   26115.87336475 -.00000298  00000+0  00000+0 0  9999
2 38749   0.0563  77.9509 0002017 327.1216  65.2188  1.00271236 50003
INTELSAT 23 (IS-23)     
1 38867U 12057A   26115.84179255 -.00000298  00000+0  00000+0 0  9991
2 38867   0.0165 267.5760 0000097 177.4000  18.8883  1.00267839 49436
FM-6                    
1 39360U 13058A   26115.33198740 -.00000029  00000+0  00000+0 0  9998
2 39360   0.0105 250.7766 0000286 259.1068  66.6169  1.00265196 45541
